UNKNOWN                 
1 87553U          25334.63272339  .00004768  00000+0  14370-2 0  9991
2 87553  65.6720  25.1763 0701678 232.8393 120.6594 13.53346339589615
UNKNOWN                 
1 87557U          25331.53436179  .00005448  00000+0  12070-1 0  9995
2 87557 101.7241 185.0112 0064397  35.2289 325.3057 13.27561633563013
UNKNOWN                 
1 87561U          25328.11262889  .00000022  00000+0  51925-3 0  9992
2 87561 102.0131  26.1651 0173943 327.1787  60.0517 12.32152378540147
UNKNOWN                 
1 87565U          25333.42908165  .00000971  00000+0  54716-3 0  9994
2 87565  99.9468 323.7417 0171604 206.8736 152.3462 14.05947987614565
UNKNOWN                 
1 87569U          25333.77000505 -.00000021  00000+0  14360-3 0  9995
2 87569 101.9881 150.6248 0055536 278.8603 100.4883 12.68540247556828
UNKNOWN                 
1 87587U          25325.81110090  .00000253  00000+0  88340-4 0  9998
2 87587  74.0224 141.5957 0020431 185.9413 174.1503 14.40041221630794
UNKNOWN                 
1 87590U          25307.05751299  .00000732  00000+0  43607-3 0  9998
2 87590  98.7933 345.0708 0027121  38.2754 352.5660 14.10246965148658
UNKNOWN                 
1 87616U          25331.56347935  .00000481  00000+0  17868-2 0  9998
2 87616  66.0331 178.4081 0633593 145.6027 250.7272 12.46873908534344
UNKNOWN                 
1 87624U          25334.05564099  .00008235  00000+0  12918-2 0  9992
2 87624  98.6780 270.6868 0097379 288.6895  70.3759 14.69769988578418
UNKNOWN                 
1 87650U          25332.22926079  .00013074  00000+0  26480-2 0  9994
2 87650 100.2695 144.0175 0033059 322.6319  37.2575 14.61100605 77646
UNKNOWN                 
1 87672U          25334.44781661  .00002575  00000+0  10400-2 0  9999
2 87672  70.8590  33.2229 0063264 291.0082  68.4286 14.27754439622702
UNKNOWN                 
1 87681U          25332.85466267  .00001389  00000+0  14971-2 0  9993
2 87681  66.7345 131.5658 0157299 171.7213 188.6508 13.71058566599930
UNKNOWN                 
1 87690U          25334.42417691  .00003777  00000+0  58840-3 0  9992
2 87690  65.7954  26.0222 0578288  53.8756 311.4431 14.00227937605658
UNKNOWN                 
1 87706U          25333.31591728  .00004128  00000+0  73388-3 0  9996
2 87706  98.6732 156.1824 0105021 309.7188 174.8301 14.64197497576551
UNKNOWN                 
1 87725U          25334.09540107  .00064227  00000+0  58267-2 0  9992
2 87725  82.8641 267.3875 0019316  84.7655 275.5771 14.94859693632039
UNKNOWN                 
1 87730U          25333.99630734  .00000099  00000+0  88287-4 0  9996
2 87730  82.9456 243.5273 0031015  41.1427 319.2059 13.74502253583586
UNKNOWN                 
1 87737U          25332.12097169  .00000050  00000+0  96969-4 0  9999
2 87737  99.3757 204.2356 0132472 227.6738 131.3126 13.72337717601858
UNKNOWN                 
1 87764U          25333.91243881  .00009981  00000+0  17008-2 0  9998
2 87764  65.6717 197.7646 0360807  83.5948 299.9344 14.34513730617282
UNKNOWN                 
1 87771U          25327.50682115  .00000107  00000+0  37032-3 0  9992
2 87771 100.7440 163.2537 0119849  45.8847 315.2052 13.19509469532558
UNKNOWN                 
1 87782U          25333.37942749  .00002702  00000+0  90415-2 0  9994
2 87782 102.3351 203.2184 0058839 271.7271  87.7086 13.00322888566254
UNKNOWN                 
1 87843U          25333.08501501  .00002189  00000+0  50762-2 0  9997
2 87843  99.6612  88.3845 0232934  37.8196 323.9035 13.16477533562365
UNKNOWN                 
1 87845U          25322.15765395  .00002048  00000+0  38823-2 0  9996
2 87845  98.8519 284.4773 0576836 310.4581  44.7565 12.88841326562047
UNKNOWN                 
1 87878U          25329.13464671  .00004508  00000+0  14211-2 0  9998
2 87878  99.1571  87.3941 0034791 317.6102  42.2398 14.40517621608764
UNKNOWN                 
1 87884U          25332.55630739  .00000112  00000+0  83541-4 0  9996
2 87884  98.7350  76.8986 0154813 108.1622 253.6472 14.05974227616378
UNKNOWN                 
1 87991U          25324.39945669  .00002317  00000+0  46245-2 0  9996
2 87991  28.6256 353.8856 0884458 246.3283 104.2021 12.34874750520231
UNKNOWN                 
1 89003U          25319.55414108  .00000717  00000+0  25466-3 0  9998
2 89003  74.0493  64.4739 0014016 133.4339 226.7983 14.36170170627642
UNKNOWN                 
1 89005U          25333.79974039  .00002060  00000+0  47437-3 0  9991
2 89005  97.8393 163.9155 0193034  71.5479 290.6590 14.45476160532229
UNKNOWN                 
1 89029U          25330.96565414  .00006410  00000+0  60139-3 0  9993
2 89029  98.0492 229.8182 0023908  20.6251 339.5928 14.94136890648723
UNKNOWN                 
1 89101U          25325.61381331  .00000003  00000+0  13668-3 0  9991
2 89101 100.4596 262.9913 0146763 154.8688 205.9652 13.03997758552097
UNKNOWN                 
1 89132U          25332.53753929  .00003163  00000+0  42898-2 0  9996
2 89132  63.4191  66.9241 2931635 319.6321  21.9613  8.86339253323851
UNKNOWN                 
1 89146U          25334.53990025  .00004194  00000+0  77814-3 0  9995
2 89146  98.2461 263.2691 0095050  93.2264 267.9818 14.62866660627094
UNKNOWN                 
1 89161U          25332.50373647  .00075808  00000+0  20404-2 0  9994
2 89161  97.6616 347.5910 0041617 111.5288 249.0400 15.36691218546394
UNKNOWN                 
1 89172U          25332.98760542  .00016958  00000+0  27689-2 0  9995
2 89172  82.0647 234.8471 0294211 324.0687  34.1028 14.45939828599907
UNKNOWN                 
1 89177U          25332.60405141  .00000117  00000+0  10844-3 0  9996
2 89177  82.9201 279.5997 0032265 179.4907 180.6287 13.73722918 60886
UNKNOWN                 
1 89183U          25334.01493050  .00000516  00000+0  49237-3 0  9997
2 89183  99.2179 245.3834 0129649 190.3565 169.4913 13.81561149605213
UNKNOWN                 
1 89184U          25334.58547521  .00025457  00000+0  33489-2 0  9995
2 89184  98.3902 198.7580 0008129 160.4761 199.6762 14.80132178490374
UNKNOWN                 
1 89213U          25334.11872443  .00000346  00000+0  24639-3 0  9999
2 89213  98.7799 207.9253 0227667 160.9581 200.0267 13.91568480450913
UNKNOWN                 
1 89251U          25334.26997325  .00007211  00000+0  42511-2 0  9990
2 89251  62.4787  19.7265 2835082  99.5319 293.3152  9.24382807372038
UNKNOWN                 
1 89261U          25332.74859100  .00000962  00000+0  29887-3 0  9998
2 89261  98.1535 327.7647 0012400 196.6700 163.4085 14.43071030531796
UNKNOWN                 
1 89304U          25329.67734543  .00011515  00000+0  14997-1 0  9997
2 89304  84.3527 108.5142 2843836   7.7412   2.8097  9.02796215436865
UNKNOWN                 
1 89349U          25331.55557924  .00000594  00000+0  20556-2 0  9996
2 89349  90.2454   7.0140 0028078 307.0052  52.8499 12.96237304476789
UNKNOWN                 
1 89379U          25333.49601844  .00004051  00000+0  52379-2 0  9995
2 89379 100.4864 347.7836 0044551 162.1309 198.1407 13.62548165578977
UNKNOWN                 
1 89395U          25330.43006770  .00000100  00000+0  16005-2 0  9998
2 89395 102.3682 299.5856 0221848 152.7477   0.1865 12.01514817522784
UNKNOWN                 
1 89403U          25331.07240356  .00000312  00000+0  10301-2 0  9997
2 89403  90.2483   5.4537 0027495 255.8445 133.0686 12.98727264475793
UNKNOWN                 
1 89484U          25333.75996732  .00032543  00000+0  25170-1 0  9999
2 89484  84.0937 158.4353 2858722  43.8488 335.6873  9.13468162354258
UNKNOWN                 
1 89493U          25333.01799800  .00002779  00000+0  13826-2 0  9999
2 89493  99.0297  41.7011 0081025  79.8390 281.1910 14.16152743462005
UNKNOWN                 
1 89494U          25333.63696094  .00002802  00000+0  13943-2 0  9996
2 89494  99.0282  42.2131 0082247  78.2848 282.7539 14.16088149461941
